NORAD_CAT_ID,OBJECT_NAME,OBJECT_TYPE,EPOCH,MEAN_MOTION,ECCENTRICITY,INCLINATION,RA_OF_ASC_NODE,ARG_OF_PERICENTER,MEAN_ANOMALY,BSTAR,MEAN_MOTION_DOT,MEAN_MOTION_DDOT,TLE_LINE0,TLE_LINE1,TLE_LINE2,SEMIMAJOR_AXIS,PERIOD,APOGEE,PERIGEE,DECAYED
53274.0,STARLINK-4050,PAYLOAD,2024-08-17 05:46:59,15.08844577,0.000142,53.2159,220.4744,91.3002,268.8153,6.5307e-05,7.52e-06,0.0,0 STARLINK-4050,1 53274U 22086AJ  24230.24096915  .00000752  00000-0  65307-4 0  9995,2 53274  53.2159 220.4744 0001420  91.3002 268.8153 15.08844577115237,6917.866,95.437,540.714,538.749,0.0
53274.0,STARLINK-4050,PAYLOAD,2024-08-18 04:02:21,15.08859076,0.0001378,53.2162,216.3118,88.0016,272.1134,0.00020438,2.968e-05,0.0,0 STARLINK-4050,1 53274U 22086AJ  24231.16830892  .00002968  00000-0  20438-3 0  9993,2 53274  53.2162 216.3118 0001378  88.0016 272.1134 15.08859076115192,6917.822,95.436,540.64,538.734,0.0
53274.0,STARLINK-4050,PAYLOAD,2024-08-18 05:37:44,15.08863251,0.0001376,53.216,216.0145,86.922,273.193,0.00018835,2.713e-05,0.0,0 STARLINK-4050,1 53274U 22086AJ  24231.23454643  .00002713  00000-0  18835-3 0  9993,2 53274  53.2160 216.0145 0001376  86.9220 273.1930 15.08863251115385,6917.809,95.436,540.626,538.722,0.0
53274.0,STARLINK-4050,PAYLOAD,2024-08-19 03:53:11,15.08824974,0.0001253,53.2158,211.8499,94.1342,265.9793,-0.00013867,-2.493e-05,0.0,0 STARLINK-4050,1 53274U 22086AJ  24232.16194064 -.00002493  00000-0 -13867-3 0  9991,2 53274  53.2158 211.8499 0001253  94.1342 265.9793 15.08824974115348,6917.926,95.439,540.658,538.925,0.0
53274.0,STARLINK-4050,PAYLOAD,2024-08-19 05:28:34,15.08823123,0.0001324,53.216,211.5523,104.0031,256.1108,-0.00014557,-2.603e-05,0.0,0 STARLINK-4050,1 53274U 22086AJ  24232.22818212 -.00002603  00000-0 -14557-3 0  9996,2 53274  53.2160 211.5523 0001324 104.0031 256.1108 15.08823123115539,6917.932,95.439,540.713,538.881,0.0
53274.0,STARLINK-4050,PAYLOAD,2024-08-20 05:19:21,15.08834667,0.0001291,53.2161,207.0936,105.1024,255.0111,-9.0814e-05,-1.733e-05,0.0,0 STARLINK-4050,1 53274U 22086AJ  24233.22177954 -.00001733  00000-0 -90814-4 0  9992,2 53274  53.2161 207.0936 0001291 105.1024 255.0111 15.08834667115509,6917.897,95.438,540.655,538.869,0.0
53274.0,STARLINK-4050,PAYLOAD,2024-08-21 08:20:55,15.08843246,0.0001373,53.2148,202.0381,95.6111,264.5038,0.00043871,6.702e-05,0.0,0 STARLINK-4050,1 53274U 22086AJ  24234.34786155  .00006702  00000-0  43871-3 0  9994,2 53274  53.2148 202.0381 0001373  95.6111 264.5038 15.08843246115678,6917.87,95.437,540.685,538.786,0.0
